HST                     
1 20580U 90037B   24270.65699867  .00011726  00000+0  52507-3 0  9993
2 20580  28.4700  24.4116 0003229  74.8398 285.2552 15.19671868692470
POLAR                   
1 23802U 96013A   24271.32929571  .00000212  00000+0  00000+0 0  9991
2 23802  79.2107 233.6632 5932314 230.2855  60.4023  1.29847102136683
SWAS                    
1 25560U 98071A   24271.51585497  .00010352  00000+0  79786-3 0  9993
2 25560  69.8992  38.0858 0005134 161.3565 198.7785 15.01837554403006
CXO                     
1 25867U 99040B   24273.63945850  .00000989  00000+0  00000+0 0  9992
2 25867  43.4742 145.2204 8783852 302.0799   0.3736  0.37808832 14950
XMM-NEWTON              
1 25989U 99066A   24272.13069558  .00000038  00000+0  00000+0 0  9996
2 25989  67.3780 291.4211 5047788  75.6050   0.0095  0.50138246 19865
TERRA                   
1 25994U 99068A   24271.49375906  .00001458  00000+0  31299-3 0  9994
2 25994  98.0377 331.9382 0003335  62.9977  53.4327 14.60018420318099
CLUSTER II-FM7 (SAMBA)  
1 26410U 00041A   24273.36783743 -.00000284  00000+0  00000+0 0  9990
2 26410 140.4941   1.1122 7766608 216.2074   0.4364  0.44188956 29268
CLUSTER II-FM5 (RUMBA)  
1 26463U 00045A   24272.76085956  .00002397  00000+0  00000+0 0  9992
2 26463 152.4566  31.0269 8770425 247.0107   0.4764  0.42893825 17434
CLUSTER II-FM8 (TANGO)  
1 26464U 00045B   24273.36790203 -.00000282  00000+0  00000+0 0  9990
2 26464 140.5344   1.1532 7763025 216.2453   0.4568  0.44221828 65184
ODIN                    
1 26702U 01007A   24271.32677968  .00021117  00000+0  80066-3 0  9993
2 26702  97.4763 286.3442 0004993 279.4577  80.6097 15.26888142293076
TIMED                   
1 26998U 01055B   24271.52137348  .00004196  00000+0  41594-3 0  9999
2 26998  74.0704  56.3212 0000459  24.7313 335.3891 14.92133186237221
INTEGRAL                
1 27540U 02048A   24271.24434208  .00000306  00000+0  00000+0 0  9992
2 27540  90.0684  16.1928 8623465 279.0528 166.5463  0.37578918 24264
CORIOLIS                
1 27640U 03001A   24271.00862631  .00000434  00000+0  22621-3 0  9991
2 27640  98.7166 276.6161 0013342 218.3420 141.6809 14.19572722125041
SORCE                   
1 27651U 03004A   24271.38007075  .00008338  00000+0  72802-3 0  9997
2 27651  39.9918 227.4618 0022724 240.6419 119.2103 14.96575756177574
MOST                    
1 27843U 03031D   24271.01388792  .00000322  00000+0  16860-3 0  9995
2 27843  98.7096 276.5402 0008757 265.5568  94.4608 14.21039587101480
SCISAT 1                
1 27858U 03036A   24271.51787419  .00002340  00000+0  31635-3 0  9999
2 27858  73.9336 337.0907 0007403 194.1129 165.9841 14.79656508138550
SWIFT                   
1 28485U 04047A   24271.37039170  .00026179  00000+0  10434-2 0  9996
2 28485  20.5556 167.6241 0006878 163.7996 196.2662 15.23310182 89903
CALIPSO                 
1 29108U 06016B   24271.52577087  .00004404  00000+0  80341-3 0  9990
2 29108  98.4292 256.0308 0002124  86.7314 273.4132 14.66515544980963
HINODE (SOLAR-B)        
1 29479U 06041A   24271.13389049  .00002159  00000+0  39375-3 0  9991
2 29479  98.0884 285.0607 0019290 116.6017 243.7167 14.66909205962730
SHIJIAN-6 02A (SJ-6 02A)
1 29505U 06046A   24271.51274983  .00012087  00000+0  84238-3 0  9997
2 29505  97.7151 298.4847 0005392 122.4061 237.7688 15.05559723977545
SHIJIAN-6 02B (SJ-6 02B)
1 29506U 06046B   24271.53716979  .00003642  00000+0  31301-3 0  9996
2 29506  97.7337 295.4923 0000999  11.8428 348.2817 14.98045462976654
FGRST (GLAST)           
1 33053U 08029A   24270.57908995  .00007752  00000+0  35469-3 0  9990
2 33053  25.5817 232.4125 0010076 136.3198 223.8138 15.18030345899999
SDO                     
1 36395U 10005A   24270.50634266 -.00000070  00000+0  00000+0 0  9995
2 36395  33.3313  96.0032 0001405 151.9136 198.4519  1.00274892 53750
CRYOSAT 2               
1 36508U 10013A   24271.56504412  .00000491  00000+0  12115-3 0  9996
2 36508  92.0211 125.8457 0001194  20.3817 339.7437 14.51903570767053
X-SAT                   
1 37389U 11015C   24271.52022638  .00000386  00000+0  18270-3 0  9999
2 37389  98.2992 269.9002 0014785  31.3075 328.8982 14.24800944698800
GCOM-W1 (SHIZUKU)       
1 38337U 12025A   24271.10874435  .00002217  00000+0  50184-3 0  9994
2 38337  98.2090 209.6221 0002442  88.3143 282.8114 14.57120864657568
NUSTAR                  
1 38358U 12031A   24271.58334491  .00002638  00000+0  15220-3 0  9998
2 38358   6.0275  29.0761 0009902 194.6803 299.6371 14.98300821669661
NEOSSAT                 
1 39089U 13009D   24271.52543360  .00000662  00000+0  24595-3 0  9997
2 39089  98.4054  96.2203 0010420 322.4732  37.5725 14.35304192606691
BRITE-AUSTRIA           
1 39091U 13009F   24271.47953377  .00000722  00000+0  26314-3 0  9995
2 39091  98.3863  96.2483 0009559 319.5959  40.4517 14.35958754606950
IRIS                    
1 39197U 13033A   24271.09505165  .00004317  00000+0  53905-3 0  9995
2 39197  97.9623 101.2430 0025131 207.3635 152.6256 14.82682592607205
HISAKI (SPRINT-A)       
1 39253U 13049A   24270.95626542  .00000208  00000+0  19295-3 0  9991
2 39253  29.7190 173.7214 0136761 323.9379  35.2032 13.55421660546123
CASSIOPE                
1 39265U 13055A   24271.53038519  .00023178  00000+0  45958-3 0  9993
2 39265  80.9472  81.3104 0470986 307.6489  48.2847 14.76734909573441
STSAT-3                 
1 39422U 13066G   24271.53009027  .00007216  00000+0  64168-3 0  9991
2 39422  97.5312 246.9842 0021124  22.1388 338.0742 14.96210509590118
SWARM B                 
1 39451U 13067A   24271.47846940  .00007958  00000+0  34983-3 0  9995
2 39451  87.7570 171.9700 0003303  84.9636 275.1987 15.21753719602152
SWARM A                 
1 39452U 13067B   24271.13046226  .00012678  00000+0  37403-3 0  9993
2 39452  87.3362 286.3436 0003747  91.3313 268.8369 15.34864146609433
SWARM C                 
1 39453U 13067C   24271.13037523  .00012761  00000+0  37648-3 0  9998
2 39453  87.3359 284.9328 0003777  91.3299 268.8386 15.34864234609392
BRITE-CA1 (TORONTO)     
1 40020U 14033L   24271.34853342  .00004107  00000+0  65579-3 0  9991
2 40020  97.8916  44.9951 0083218 125.5661 235.3339 14.70082575549980
OCO 2                   
1 40059U 14035A   24270.96650671  .00002082  00000+0  47214-3 0  9998
2 40059  98.2081 210.2273 0001908  71.7209 288.4197 14.57105712544565
BRITE-PL2 (HEWELIUSZ)   
1 40119U 14049B   24270.66811611  .00005703  00000+0  59717-3 0  9994
2 40119  97.8846   9.9532 0015856  34.2022 326.0213 14.89903504547685
RESURS-P 2              
1 40360U 14087A   24271.52695099  .00072879  00000+0  62196-3 0  9993
2 40360  97.1445 359.3274 0004264 256.3450 103.7338 15.69285709547057
MMS 1                   
1 40482U 15011A   24271.00001157 -.00002226  00000+0  00000+0 0  9997
2 40482  54.1142   4.5763 9008777 151.9965 104.2214  0.28514160 15665
MMS 2                   
1 40483U 15011B   24271.00001157 -.00002226  00000+0  00000+0 0  9998
2 40483  54.1298   4.5634 9008998 152.0046 103.0554  0.28512930  1305
MMS 3                   
1 40484U 15011C   24271.00001157 -.00002226  00000+0  00000+0 0  9999
2 40484  54.1310   4.5629 9008986 152.0046 103.1833  0.28513069 15649
MMS 4                   
1 40485U 15011D   24271.08334491 -.00002213  00000+0  00000+0 0  9994
2 40485  54.1313   4.5610 9007379 152.0079 101.9169  0.28511352 15645
ASTROSAT                
1 40930U 15052A   24268.63991839  .00003582  00000+0  38123-3 0  9996
2 40930   5.9981   6.8100 0008180  39.5556 320.5168 14.79584756486161
DAMPE                   
1 41173U 15078A   24271.52357779  .00003428  00000+0  12869-3 0  9993
2 41173  97.4380 264.7156 0014057 134.6327 225.6061 15.27807253488601
PISAT                   
1 41784U 16059B   24271.04382077  .00003369  00000+0  61177-3 0  9997
2 41784  97.8319 288.4208 0031557  51.8343 308.5697 14.66502442427588
HXMT (HUIYAN)           
1 42758U 17034A   24271.51731469  .00015295  00000+0  76852-3 0  9995
2 42758  43.0140  67.5830 0010582  72.0105 288.1896 15.17026201402384
FLYING LAPTOP           
1 42831U 17042G   24271.48310788  .00005091  00000+0  45717-3 0  9998
2 42831  97.3902  86.5892 0013590  92.7739 267.5039 14.96048786392428
ZHANGHENG 1 (CSES)      
1 43194U 18015C   24271.52089043  .00025224  00000+0  11482-2 0  9995
2 43194  97.6215  56.3215 0003956 179.3668 180.7572 15.20679695369242
SALSAT                  
1 46495U 20068K   24270.44920170  .00017627  00000+0  93000-3 0  9993
2 46495  97.8273 232.4989 0012089 337.4166  22.6532 15.15552496219637
IXPE                    
1 49954U 21121A   24271.25001157  .00012680  00000+0  92037-3 0  9995
2 49954   0.2307 355.1957 0009155 359.2091 100.7751 15.00151888153242
